[{"OBJECT_NAME":"STARLINK-4405","OBJECT_ID":"2022-084N","EPOCH":"2026-03-09T18:17:35.856384","MEAN_MOTION":15.05657021,"ECCENTRICITY":9.195e-5,"INCLINATION":97.6025,"RA_OF_ASC_NODE":131.3419,"ARG_OF_PERICENTER":102.1471,"MEAN_ANOMALY":257.9859,"EPHEMERIS_TYPE":0,"CLASSIFICATION_TYPE":"U","NORAD_CAT_ID":53201,"ELEMENT_SET_NO":999,"REV_AT_EPOCH":19939,"BSTAR":0.00030510014,"MEAN_MOTION_DOT":4.345e-5,"MEAN_MOTION_DDOT":0},{"OBJECT_NAME":"CZ-6A DEB","OBJECT_ID":"2022-151AFF","EPOCH":"2026-03-08T15:34:13.969920","MEAN_MOTION":15.07686186,"ECCENTRICITY":0.00385412,"INCLINATION":98.6214,"RA_OF_ASC_NODE":147.2095,"ARG_OF_PERICENTER":177.326,"MEAN_ANOMALY":182.8178,"EPHEMERIS_TYPE":0,"CLASSIFICATION_TYPE":"U","NORAD_CAT_ID":56631,"ELEMENT_SET_NO":999,"REV_AT_EPOCH":15333,"BSTAR":0.0088285077,"MEAN_MOTION_DOT":0.00139408,"MEAN_MOTION_DDOT":0}]
